QIANFAN-57              
1 62787U 25016C   25357.19420183  .00000169  00000+0  24287-3 0  9995
2 62787  88.9788 102.1218 0002511 114.0258 246.1156 13.50979666 48611
QIANFAN-58              
1 62788U 25016D   25357.23943541  .00000175  00000+0  25258-3 0  9995
2 62788  88.9757 101.9455 0012308 316.2421  43.7754 13.50981477 48664
QIANFAN-59              
1 62789U 25016E   25357.19001825  .00000185  00000+0  26756-3 0  9996
2 62789  88.9781 102.0268 0012741 320.5847  39.4376 13.50983077 48656
QIANFAN-60              
1 62790U 25016F   25357.07491827  .00000068  00000+0  87396-4 0  9998
2 62790  88.9762 102.0083 0014178 316.5017  43.5015 13.50986725 48628
QIANFAN-61              
1 62791U 25016G   25357.18179667  .00000190  00000+0  27533-3 0  9998
2 62791  88.9829 102.1671 0013141 315.8409  44.1692 13.50983398 48657
QIANFAN-62              
1 62792U 25016H   25357.26000015  .00000188  00000+0  27242-3 0  9992
2 62792  88.9776 102.0219 0014531 315.6974  44.3013 13.50979994 48651
QIANFAN-63              
1 62793U 25016J   25357.21059703  .00000194  00000+0  28260-3 0  9994
2 62793  88.9782 101.9792 0014661 321.7247  38.2862 13.50986756 48689
QIANFAN-64              
1 62794U 25016K   25357.17767904  .00000183  00000+0  26550-3 0  9997
2 62794  88.9769 101.9553 0012500 314.5012  45.5117 13.50981676 48679
